stk.v.4.3 

BEGIN Ephemeris 
 
NumberOfEphemerisPoints		146 
ScenarioEpoch	    1 Sep 2020 12:14:25.977680684 
InterpolationMethod		Lagrange 
InterpolationOrder		5 
CentralBody				Earth 
CoordinateSystem			TEME 
CoordinateSystemEpoch	  1 Sep 2020 12:14:25.977680684 
DistanceUnit			Kilometers 
 
EphemerisTimePosVel 
 
       0.00000000   -4374.04278813   -5643.17441850       0.04000716  0.382261387 -0.273171333  7.459137645
 END Ephemeris 
